{
  "links" : {
    "next" : "https://api.nasa.gov/neo/rest/v1/feed?start_date=2004-07-09&end_date=2004-07-09&detailed=true&api_key=t0TVs3DtDT2H8Oy2Zy8m2eVrNsAVKAexjcZXUckd",
    "prev" : "https://api.nasa.gov/neo/rest/v1/feed?start_date=2004-07-07&end_date=2004-07-07&detailed=true&api_key=t0TVs3DtDT2H8Oy2Zy8m2eVrNsAVKAexjcZXUckd",
    "self" : "https://api.nasa.gov/neo/rest/v1/feed?start_date=2004-07-08&end_date=2004-07-08&detailed=true&api_key=t0TVs3DtDT2H8Oy2Zy8m2eVrNsAVKAexjcZXUckd"
  },
  "element_count" : 5,
  "near_earth_objects" : {
    "2004-07-08" : [ {
      "links" : {
        "self" : "https://api.nasa.gov/neo/rest/v1/neo/2315508?api_key=t0TVs3DtDT2H8Oy2Zy8m2eVrNsAVKAexjcZXUckd"
      },
      "neo_reference_id" : "2315508",
      "name" : "315508 (2008 AB31)",
      "nasa_jpl_url" : "http://ssd.jpl.nasa.gov/sbdb.cgi?sstr=2315508",
      "absolute_magnitude_h" : 20.2,
      "estimated_diameter" : {
        "kilometers" : {
          "estimated_diameter_min" : 0.2424124811,
          "estimated_diameter_max" : 0.5420507863
        },
        "meters" : {
          "estimated_diameter_min" : 242.4124811008,
          "estimated_diameter_max" : 542.0507863358
        },
        "miles" : {
          "estimated_diameter_min" : 0.1506280858,
          "estimated_diameter_max" : 0.3368146392
        },
        "feet" : {
          "estimated_diameter_min" : 795.3165644948,
          "estimated_diameter_max" : 1778.3819018419
        }
      },
      "is_potentially_hazardous_asteroid" : false,
      "close_approach_data" : [ {
        "close_approach_date" : "2004-07-08",
        "epoch_date_close_approach" : 1089270000000,
        "relative_velocity" : {
          "kilometers_per_second" : "14.8187312708",
          "kilometers_per_hour" : "53347.4325747317",
          "miles_per_hour" : "33148.0199795604"
        },
        "miss_distance" : {
          "astronomical" : "0.4809754846",
          "lunar" : "187.0994567871",
          "kilometers" : "71952912",
          "miles" : "44709464"
        },
        "orbiting_body" : "Earth"
      } ],
      "orbital_data" : {
        "orbit_id" : "31",
        "orbit_determination_date" : "2017-04-06 09:23:48",
        "orbit_uncertainty" : "0",
        "minimum_orbit_intersection" : ".295088",
        "jupiter_tisserand_invariant" : "4.158",
        "epoch_osculation" : "2458000.5",
        "eccentricity" : ".3204312021515857",
        "semi_major_axis" : "1.602141874540668",
        "inclination" : "30.01782734657995",
        "ascending_node_longitude" : "303.0404096238294",
        "orbital_period" : "740.7128589887284",
        "perihelion_distance" : "1.088765627664207",
        "perihelion_argument" : "255.6285395104613",
        "aphelion_distance" : "2.115518121417129",
        "perihelion_time" : "2458262.843696877694",
        "mean_anomaly" : "232.4961640264883",
        "mean_motion" : ".4860182939060846",
        "equinox" : "J2000"
      }
    }, {
      "links" : {
        "self" : "https://api.nasa.gov/neo/rest/v1/neo/3184473?api_key=t0TVs3DtDT2H8Oy2Zy8m2eVrNsAVKAexjcZXUckd"
      },
      "neo_reference_id" : "3184473",
      "name" : "(2004 MO4)",
      "nasa_jpl_url" : "http://ssd.jpl.nasa.gov/sbdb.cgi?sstr=3184473",
      "absolute_magnitude_h" : 24.9,
      "estimated_diameter" : {
        "kilometers" : {
          "estimated_diameter_min" : 0.0278326768,
          "estimated_diameter_max" : 0.0622357573
        },
        "meters" : {
          "estimated_diameter_min" : 27.8326768072,
          "estimated_diameter_max" : 62.2357573367
        },
        "miles" : {
          "estimated_diameter_min" : 0.0172944182,
          "estimated_diameter_max" : 0.0386714948
        },
        "feet" : {
          "estimated_diameter_min" : 91.3145593761,
          "estimated_diameter_max" : 204.1855621004
        }
      },
      "is_potentially_hazardous_asteroid" : false,
      "close_approach_data" : [ {
        "close_approach_date" : "2004-07-08",
        "epoch_date_close_approach" : 1089270000000,
        "relative_velocity" : {
          "kilometers_per_second" : "5.4385891242",
          "kilometers_per_hour" : "19578.9208472454",
          "miles_per_hour" : "12165.5800120009"
        },
        "miss_distance" : {
          "astronomical" : "0.0266307166",
          "lunar" : "10.3593482971",
          "kilometers" : "3983898.5",
          "miles" : "2475479.75"
        },
        "orbiting_body" : "Earth"
      } ],
      "orbital_data" : {
        "orbit_id" : "20",
        "orbit_determination_date" : "2017-04-06 09:12:35",
        "orbit_uncertainty" : "7",
        "minimum_orbit_intersection" : ".0238357",
        "jupiter_tisserand_invariant" : "4.115",
        "epoch_osculation" : "2458000.5",
        "eccentricity" : ".3882175867924831",
        "semi_major_axis" : "1.699130513292575",
        "inclination" : "2.219336865489252",
        "ascending_node_longitude" : "106.4054908462337",
        "orbital_period" : "808.9813981966844",
        "perihelion_distance" : "1.039498165776658",
        "perihelion_argument" : "188.4573990116097",
        "aphelion_distance" : "2.358762860808492",
        "perihelion_time" : "2458054.919655474544",
        "mean_anomaly" : "335.7830328181752",
        "mean_motion" : ".4450040517649512",
        "equinox" : "J2000"
      }
    }, {
      "links" : {
        "self" : "https://api.nasa.gov/neo/rest/v1/neo/3574593?api_key=t0TVs3DtDT2H8Oy2Zy8m2eVrNsAVKAexjcZXUckd"
      },
      "neo_reference_id" : "3574593",
      "name" : "(2011 ON24)",
      "nasa_jpl_url" : "http://ssd.jpl.nasa.gov/sbdb.cgi?sstr=3574593",
      "absolute_magnitude_h" : 23.0,
      "estimated_diameter" : {
        "kilometers" : {
          "estimated_diameter_min" : 0.0667659413,
          "estimated_diameter_max" : 0.1492931834
        },
        "meters" : {
          "estimated_diameter_min" : 66.7659413495,
          "estimated_diameter_max" : 149.2931834393
        },
        "miles" : {
          "estimated_diameter_min" : 0.0414864197,
          "estimated_diameter_max" : 0.0927664547
        },
        "feet" : {
          "estimated_diameter_min" : 219.0483710172,
          "estimated_diameter_max" : 489.807047955
        }
      },
      "is_potentially_hazardous_asteroid" : false,
      "close_approach_data" : [ {
        "close_approach_date" : "2004-07-08",
        "epoch_date_close_approach" : 1089270000000,
        "relative_velocity" : {
          "kilometers_per_second" : "7.7714328124",
          "kilometers_per_hour" : "27977.1581247162",
          "miles_per_hour" : "17383.9180581049"
        },
        "miss_distance" : {
          "astronomical" : "0.3675156838",
          "lunar" : "142.9636077881",
          "kilometers" : "54979564",
          "miles" : "34162716"
        },
        "orbiting_body" : "Earth"
      } ],
      "orbital_data" : {
        "orbit_id" : "9",
        "orbit_determination_date" : "2017-04-06 08:53:05",
        "orbit_uncertainty" : "1",
        "minimum_orbit_intersection" : ".153207",
        "jupiter_tisserand_invariant" : "5.118",
        "epoch_osculation" : "2458000.5",
        "eccentricity" : ".1754374222098223",
        "semi_major_axis" : "1.243645680246925",
        "inclination" : "13.98728204067147",
        "ascending_node_longitude" : "121.8998834178464",
        "orbital_period" : "506.5746177797454",
        "perihelion_distance" : "1.025463687962024",
        "perihelion_argument" : "279.8421519744134",
        "aphelion_distance" : "1.461827672531827",
        "perihelion_time" : "2457901.344715028151",
        "mean_anomaly" : "70.46524112541665",
        "mean_motion" : ".7106554244226367",
        "equinox" : "J2000"
      }
    } ]
  }
}